{"type": "FeatureCollection", "features": [{"type": "Feature", "properties": {"norad_id": 22490, "name": "SCD 1", "group": "resource", "lat": -22.344996120709812, "lon": -140.40749579960047, "alt_km": 711.3370224200744, "timestamp": "2025-12-03T04:52:29.297707+00:00", "meta": {"OBJECT_NAME": "SCD 1", "OBJECT_ID": "1993-009B", "EPOCH": "2025-12-02T16:54:04.309056", "MEAN_MOTION": 14.45987016, "ECCENTRICITY": 0.004184, "INCLINATION": 24.971, "RA_OF_ASC_NODE": 340.6354, "ARG_OF_PERICENTER": 218.2799, "MEAN_ANOMALY": 303.4939, "EPHEMERIS_TYPE": 0, "CLASSIFICATION_TYPE": "U", "NORAD_CAT_ID": 22490, "ELEMENT_SET_NO": 999, "REV_AT_EPOCH": 73264, "BSTAR": 0.00012191, "MEAN_MOTION_DOT": 6.32e-06, "MEAN_MOTION_DDOT": 0}, "tle": {"line1": "1 22490U 93009B   25336.70421654  .00000632  00000+0  12191-3 0  9993", "line2": "2 22490  24.9710 340.6354 0041840 218.2799 303.4939 14.45987016732640"}}, "geometry": {"type": "Point", "coordinates": [-140.40749579960047, -22.344996120709812]}}, {"type": "Feature", "properties": {"norad_id": 25397, "name": "TECHSAT 1B (GO-32)", "group": "resource", "lat": -72.68563408945249, "lon": 109.67210513682359, "alt_km": 819.4894273647997, "timestamp": "2025-12-03T04:52:29.297736+00:00", "meta": {"OBJECT_NAME": "TECHSAT 1B (GO-32)", "OBJECT_ID": "1998-043D", "EPOCH": "2025-12-02T14:11:36.880512", "MEAN_MOTION": 14.24372378, "ECCENTRICITY": 0.00022527, "INCLINATION": 98.9913, "RA_OF_ASC_NODE": 319.5698, "ARG_OF_PERICENTER": 74.0884, "MEAN_ANOMALY": 286.0542, "EPHEMERIS_TYPE": 0, "CLASSIFICATION_TYPE": "U", "NORAD_CAT_ID": 25397, "ELEMENT_SET_NO": 999, "REV_AT_EPOCH": 42334, "BSTAR": 8.2023649e-05, "MEAN_MOTION_DOT": 1.43e-06, "MEAN_MOTION_DDOT": 0}, "tle": {"line1": "1 25397U 98043D   25336.59139908  .00000143  00000+0  82024-4 0  9990", "line2": "2 25397  98.9913 319.5698 0002252  74.0884 286.0542 14.24372378423344"}}, "geometry": {"type": "Point", "coordinates": [109.67210513682359, -72.68563408945249]}}, {"type": "Feature", "properties": {"norad_id": 25504, "name": "SCD 2", "group": "resource", "lat": -22.2658728896054, "lon": 139.19944927518807, "alt_km": 739.9411150316882, "timestamp": "2025-12-03T04:52:29.297752+00:00", "meta": {"OBJECT_NAME": "SCD 2", "OBJECT_ID": "1998-060A", "EPOCH": "2025-12-02T08:22:08.651136", "MEAN_MOTION": 14.45414, "ECCENTRICITY": 0.00167262, "INCLINATION": 24.9937, "RA_OF_ASC_NODE": 205.9699, "ARG_OF_PERICENTER": 202.5525, "MEAN_ANOMALY": 318.5622, "EPHEMERIS_TYPE": 0, "CLASSIFICATION_TYPE": "U", "NORAD_CAT_ID": 25504, "ELEMENT_SET_NO": 999, "REV_AT_EPOCH": 43181, "BSTAR": 9.8916166e-05, "MEAN_MOTION_DOT": 5.36e-06, "MEAN_MOTION_DDOT": 0}, "tle": {"line1": "1 25504U 98060A   25336.34871124  .00000536  00000+0  98916-4 0  9998", "line2": "2 25504  24.9937 205.9699 0016726 202.5525 318.5622 14.45414000431812"}}, "geometry": {"type": "Point", "coordinates": [139.19944927518807, -22.2658728896054]}}, {"type": "Feature", "properties": {"norad_id": 25757, "name": "DLR-TUBSAT", "group": "resource", "lat": -53.58734885213949, "lon": 129.50474013083124, "alt_km": 715.6541725330762, "timestamp": "2025-12-03T04:52:29.297765+00:00", "meta": {"OBJECT_NAME": "DLR-TUBSAT", "OBJECT_ID": "1999-029B", "EPOCH": "2025-12-02T21:11:04.289856", "MEAN_MOTION": 14.52351375, "ECCENTRICITY": 0.0013372, "INCLINATION": 98.6555, "RA_OF_ASC_NODE": 321.0927, "ARG_OF_PERICENTER": 223.9038, "MEAN_ANOMALY": 136.1095, "EPHEMERIS_TYPE": 0, "CLASSIFICATION_TYPE": "U", "NORAD_CAT_ID": 25757, "ELEMENT_SET_NO": 999, "REV_AT_EPOCH": 40475, "BSTAR": 5.9222e-05, "MEAN_MOTION_DOT": 1.93e-06, "MEAN_MOTION_DDOT": 0}, "tle": {"line1": "1 25757U 99029B   25336.88268854  .00000193  00000+0  59222-4 0  9999", "line2": "2 25757  98.6555 321.0927 0013372 223.9038 136.1095 14.52351375404754"}}, "geometry": {"type": "Point", "coordinates": [129.50474013083124, -53.58734885213949]}}, {"type": "Feature", "properties": {"norad_id": 25994, "name": "TERRA", "group": "resource", "lat": 4.176622537192508, "lon": 28.650202193183727, "alt_km": 693.4964502903103, "timestamp": "2025-12-03T04:52:29.297777+00:00", "meta": {"OBJECT_NAME": "TERRA", "OBJECT_ID": "1999-068A", "EPOCH": "2025-12-02T19:24:36.152064", "MEAN_MOTION": 14.6093363, "ECCENTRICITY": 0.0003383, "INCLINATION": 97.9763, "RA_OF_ASC_NODE": 28.8569, "ARG_OF_PERICENTER": 117.8408, "MEAN_ANOMALY": 333.6615, "EPHEMERIS_TYPE": 0, "CLASSIFICATION_TYPE": "U", "NORAD_CAT_ID": 25994, "ELEMENT_SET_NO": 999, "REV_AT_EPOCH": 38093, "BSTAR": 0.00015039, "MEAN_MOTION_DOT": 6.92e-06, "MEAN_MOTION_DDOT": 0}, "tle": {"line1": "1 25994U 99068A   25336.80875176  .00000692  00000+0  15039-3 0  9999", "line2": "2 25994  97.9763  28.8569 0003383 117.8408 333.6615 14.60933630380931"}}, "geometry": {"type": "Point", "coordinates": [28.650202193183727, 4.176622537192508]}}, {"type": "Feature", "properties": {"norad_id": 27004, "name": "MAROC-TUBSAT", "group": "resource", "lat": -39.68666377306905, "lon": -42.75749794248273, "alt_km": 999.1287027422968, "timestamp": "2025-12-03T04:52:29.297789+00:00", "meta": {"OBJECT_NAME": "MAROC-TUBSAT", "OBJECT_ID": "2001-056D", "EPOCH": "2025-12-02T10:24:58.972032", "MEAN_MOTION": 13.70252105, "ECCENTRICITY": 0.00191119, "INCLINATION": 99.7911, "RA_OF_ASC_NODE": 144.6986, "ARG_OF_PERICENTER": 287.5856, "MEAN_ANOMALY": 100.9799, "EPHEMERIS_TYPE": 0, "CLASSIFICATION_TYPE": "U", "NORAD_CAT_ID": 27004, "ELEMENT_SET_NO": 999, "REV_AT_EPOCH": 19924, "BSTAR": 3.5947441e-05, "MEAN_MOTION_DOT": -1.5e-07, "MEAN_MOTION_DDOT": 0}, "tle": {"line1": "1 27004U 01056D   25336.43401588 -.00000015  00000+0  35947-4 0  9995", "line2": "2 27004  99.7911 144.6986 0019111 287.5856 100.9799 13.70252105199249"}}, "geometry": {"type": "Point", "coordinates": [-42.75749794248273, -39.68666377306905]}}, {"type": "Feature", "properties": {"norad_id": 27424, "name": "AQUA", "group": "resource", "lat": -29.109592033359252, "lon": 113.20732133359027, "alt_km": 693.4595459815437, "timestamp": "2025-12-03T04:52:29.297801+00:00", "meta": {"OBJECT_NAME": "AQUA", "OBJECT_ID": "2002-022A", "EPOCH": "2025-12-02T21:37:19.748064", "MEAN_MOTION": 14.61769935, "ECCENTRICITY": 7.33e-05, "INCLINATION": 98.4023, "RA_OF_ASC_NODE": 297.6211, "ARG_OF_PERICENTER": 107.7415, "MEAN_ANOMALY": 312.2799, "EPHEMERIS_TYPE": 0, "CLASSIFICATION_TYPE": "U", "NORAD_CAT_ID": 27424, "ELEMENT_SET_NO": 999, "REV_AT_EPOCH": 25459, "BSTAR": 0.00031293, "MEAN_MOTION_DOT": 1.512e-05, "MEAN_MOTION_DDOT": 0}, "tle": {"line1": "1 27424U 02022A   25336.90092301  .00001512  00000+0  31293-3 0  9997", "line2": "2 27424  98.4023 297.6211 0000733 107.7415 312.2799 14.61769935254592"}}, "geometry": {"type": "Point", "coordinates": [113.20732133359027, -29.109592033359252]}}, {"type": "Feature", "properties": {"norad_id": 28051, "name": "IRS-P6 (RESOURCESAT-1)", "group": "resource", "lat": -55.26651536465331, "lon": -173.98166300116128, "alt_km": 737.8215111492409, "timestamp": "2025-12-03T04:52:29.297812+00:00", "meta": {"OBJECT_NAME": "IRS-P6 (RESOURCESAT-1)", "OBJECT_ID": "2003-046A", "EPOCH": "2025-12-02T21:53:54.497184", "MEAN_MOTION": 14.36067002, "ECCENTRICITY": 0.0063625, "INCLINATION": 98.2192, "RA_OF_ASC_NODE": 17.7743, "ARG_OF_PERICENTER": 210.2934, "MEAN_ANOMALY": 323.5431, "EPHEMERIS_TYPE": 0, "CLASSIFICATION_TYPE": "U", "NORAD_CAT_ID": 28051, "ELEMENT_SET_NO": 999, "REV_AT_EPOCH": 15235, "BSTAR": 0.00011737, "MEAN_MOTION_DOT": 3.08e-06, "MEAN_MOTION_DDOT": 0}, "tle": {"line1": "1 28051U 03046A   25336.91243631  .00000308  00000+0  11737-3 0  9999", "line2": "2 28051  98.2192  17.7743 0063625 210.2934 323.5431 14.36067002152357"}}, "geometry": {"type": "Point", "coordinates": [-173.98166300116128, -55.26651536465331]}}, {"type": "Feature", "properties": {"norad_id": 28220, "name": "SHIYAN-1 (SY-1)", "group": "resource", "lat": -19.46467268358426, "lon": -144.62997573609655, "alt_km": 491.88982361067883, "timestamp": "2025-12-03T04:52:29.297823+00:00", "meta": {"OBJECT_NAME": "SHIYAN-1 (SY-1)", "OBJECT_ID": "2004-012A", "EPOCH": "2025-12-02T17:00:01.355328", "MEAN_MOTION": 15.27736035, "ECCENTRICITY": 0.0006359, "INCLINATION": 97.8957, "RA_OF_ASC_NODE": 37.6577, "ARG_OF_PERICENTER": 2.5702, "MEAN_ANOMALY": 357.5567, "EPHEMERIS_TYPE": 0, "CLASSIFICATION_TYPE": "U", "NORAD_CAT_ID": 28220, "ELEMENT_SET_NO": 999, "REV_AT_EPOCH": 18103, "BSTAR": 0.00061767, "MEAN_MOTION_DOT": 0.00016686, "MEAN_MOTION_DDOT": 0}, "tle": {"line1": "1 28220U 04012A   25336.70834902  .00016686  00000+0  61767-3 0  9999", "line2": "2 28220  97.8957  37.6577 0006359   2.5702 357.5567 15.27736035181035"}}, "geometry": {"type": "Point", "coordinates": [-144.62997573609655, -19.46467268358426]}}, {"type": "Feature", "properties": {"norad_id": 28376, "name": "AURA", "group": "resource", "lat": 10.025863621655219, "lon": -74.09565884972545, "alt_km": 691.6848693327693, "timestamp": "2025-12-03T04:52:29.297834+00:00", "meta": {"OBJECT_NAME": "AURA", "OBJECT_ID": "2004-026A", "EPOCH": "2025-12-02T20:36:34.634880", "MEAN_MOTION": 14.60907724, "ECCENTRICITY": 0.0001074, "INCLINATION": 98.3169, "RA_OF_ASC_NODE": 287.0404, "ARG_OF_PERICENTER": 90.5296, "MEAN_ANOMALY": 269.6027, "EPHEMERIS_TYPE": 0, "CLASSIFICATION_TYPE": "U", "NORAD_CAT_ID": 28376, "ELEMENT_SET_NO": 999, "REV_AT_EPOCH": 13754, "BSTAR": 0.00031962, "MEAN_MOTION_DOT": 1.517e-05, "MEAN_MOTION_DDOT": 0}, "tle": {"line1": "1 28376U 04026A   25336.85873420  .00001517  00000+0  31962-3 0  9991", "line2": "2 28376  98.3169 287.0404 0001074  90.5296 269.6027 14.60907724137544"}}, "geometry": {"type": "Point", "coordinates": [-74.09565884972545, 10.025863621655219]}}]}